COSMOS 2534 [GLONASS-M] 
1 44299U 19030A   26204.24407362  .00000092  00000+0  00000+0 0  9992
2 44299  64.3713 191.4023 0013437 275.2524 165.5359  2.13102350 55695
BEIDOU-3 IGSO-2         
1 44337U 19035A   26202.76760661 -.00000106  00000+0  00000+0 0  9996
2 44337  55.2573 158.5594 0039050 212.8700 322.7485  1.00289985 26016
NAVSTAR 78 (USA 293)    
1 44506U 19056A   26203.78587352 -.00000112  00000+0  00000+0 0  9991
2 44506  55.6178 329.7278 0063752 198.2915 333.8944  2.00570518 50781
BEIDOU-3 M24            
1 44542U 19061A   26203.68140029  .00000076  00000+0  00000+0 0  9990
2 44542  54.3972 181.5308 0008758   0.3923 359.5913  1.86229291 46456
BEIDOU-3 M23            
1 44543U 19061B   26203.81878547  .00000075  00000+0  00000+0 0  9998
2 44543  54.3962 181.4944 0006012 341.9460  21.5168  1.86227471 46469
EUTELSAT 5 WEST B       
1 44624U 19067A   26204.25484243 -.00000038  00000+0  00000+0 0  9999
2 44624   0.0723 327.8189 0003288 152.2312 267.6694  1.00272156 24795
BEIDOU-3 M22            
1 44793U 19078A   26201.91091067 -.00000098  00000+0  00000+0 0  9992
2 44793  53.9028 298.6402 0005603  50.2813 309.8054  1.86227204 45279
BEIDOU-3 M21            
1 44794U 19078B   26203.66162958 -.00000094  00000+0  00000+0 0  9991
2 44794  53.8746 298.5385 0003510  49.7374 310.3307  1.86227707 45316
COSMOS 2544 [GLONASS-M] 
1 44850U 19088A   26199.93909424 -.00000038  00000+0  00000+0 0  9994
2 44850  65.5828  72.6716 0012049 253.1294 106.8089  2.13102904 51390
BEIDOU-3 M19            
1 44864U 19090A   26204.16652241 -.00000073  00000+0  00000+0 0  9995
2 44864  56.5910  61.6011 0016527 296.6472 239.5314  1.86231503 44909
BEIDOU-3 M20            
1 44865U 19090B   26202.96464863 -.00000079  00000+0  00000+0 0  9999
2 44865  56.5915  61.6754 0014231 312.1692 227.7948  1.86231478 44865
BEIDOU-3 G2             
1 45344U 20017A   26204.12915047 -.00000138  00000+0  00000+0 0  9994
2 45344   2.9357  47.8504 0002118  58.0884 321.4538  1.00272726 23627
COSMOS 2545 [GLONASS-M] 
1 45358U 20018A   26203.88809806 -.00000089  00000+0  00000+0 0  9992
2 45358  64.3314 311.1635 0009943 230.3379 129.5965  2.13102496 49424
BEIDOU-3 G3             
1 45807U 20040A   26204.27780920 -.00000351  00000+0  00000+0 0  9997
2 45807   2.5339  67.5033 0002293 317.4864 126.5873  1.00273122 22432
NAVSTAR 79 (USA 304)    
1 45854U 20041A   26203.87491671 -.00000079  00000+0  00000+0 0  9994
2 45854  56.6939  27.5596 0065610 204.6648 328.6198  2.00558039 44757
GALAXY 30 (G-30)        
1 46114U 20056C   26204.27708715  .00000042  00000+0  00000+0 0  9994
2 46114   0.0140  70.3799 0002268  48.6314 156.7393  1.00271616 21654
COSMOS 2547 [GLONASS-K] 
1 46805U 20075A   26201.26230815  .00000083  00000+0  00000+0 0  9994
2 46805  64.6016 191.3717 0009465 239.9348 119.9732  2.13099966 44611
NAVSTAR 80 (USA 309)    
1 46826U 20078A   26203.40249986  .00000084  00000+0  00000+0 0  9998
2 46826  53.9765 209.3500 0074707 207.9626 321.8106  2.00565122 42212
NAVSTAR 81 (USA 319)    
1 48859U 21054A   26203.41991022 -.00000113  00000+0  00000+0 0  9991
2 48859  55.1554 331.0432 0026666 228.6022 140.0987  2.00567016 37461
QZS-1R (MICHIBIKI-1R)   
1 49336U 21096A   26200.56101544 -.00000322  00000+0  00000+0 0  9995
2 49336  37.5263  79.1015 0755512 272.3091 279.1178  1.00244085 17338
GSAT0223 (GALILEO 27)   
1 49809U 21116A   26203.48190089 -.00000107  00000+0  00000+0 0  9990
2 49809  57.1475 340.7222 0002505 195.3315 345.6811  1.70476501 28784
GSAT0224 (GALILEO 28)   
1 49810U 21116B   26204.18061353 -.00000106  00000+0  00000+0 0  9990
2 49810  57.1469 340.7020 0002038 183.2732 179.1905  1.70476626 28822
COSMOS 2557 [GLONASS-K] 
1 52984U 22075A   26201.89567594 -.00000088  00000+0  00000+0 0  9993
2 52984  64.2766 313.2973 0010827 270.8513  89.0451  2.13102143 31438
COSMOS 2559 [GLONASS-K] 
1 54031U 22130A   26202.18464193 -.00000089  00000+0  00000+0 0  9995
2 54031  64.2489 313.3698 0013171 181.7048 178.3110  2.13101788 29411
COSMOS 2564 [GLONASS-M] 
1 54377U 22161A   26202.96626008  .00000094  00000+0  00000+0 0  9998
2 54377  64.7442 191.5572 0012170 224.6979 135.2103  2.13102079 28375
NAVSTAR 82 (USA 343)    
1 55268U 23009A   26201.60569105  .00000029  00000+0  00000+0 0  9992
2 55268  55.1257 147.2053 0005286 339.0004 198.4380  2.00569363 25919
BEIDOU-3 G4             
1 56564U 23066A   26204.28361589 -.00000276  00000+0  00000+0 0  9993
2 56564   0.4545 341.2296 0005173 182.3217  19.6237  1.00270458 11752
NVS-01 (IRNSS-1J)       
1 56759U 23076A   26204.28153589 -.00000329  00000+0  00000+0 0  9998
2 56759   2.0834 242.7005 0002907  17.0278 272.1546  1.00275296 11476
COSMOS 2569 [GLONASS-K2]
1 57517U 23114A   26203.91704728 -.00000048  00000+0  00000+0 0  9998
2 57517  65.3229  71.4159 0009429 295.2211  64.7491  2.13103906 23020
BEIDOU-3 M28            
1 58654U 23207A   26202.66461816 -.00000081  00000+0  00000+0 0  9990
2 58654  55.7837  61.1401 0002213   9.0129 351.0521  1.86229818 17489
BEIDOU-3 M26            
1 58655U 23207B   26203.53603147 -.00000079  00000+0  00000+0 0  9990
2 58655  55.7870  61.0974 0001649 323.4621  36.5888  1.86229852 17482
